0 THOR AGENA B DEB
1 01948U 65098F   13281.14990049  .00006658  00000-0  15003-2 0  5263
2 01948 079.8579 267.7334 0916714 307.6874 159.1391 13.21648298189915
0 THOR AGENA B DEB
1 01948U 65098F   13282.45186127  .00009593  00000-0  21613-2 0  5278
2 01948 079.8587 266.4506 0916566 304.6083 233.8266 13.21676478190087
0 THOR AGENA B DEB
1 01948U 65098F   13282.95495693  .00008163  00000-0  18398-2 0  5283
2 01948 079.8587 265.9550 0916509 303.4172 107.5754 13.21681981190155
0 THOR AGENA B DEB
1 01948U 65098F   13286.96576238  .00005941  00000-0  13399-2 0  5303
2 01948 079.8574 262.0035 0916217 293.9230 111.5765 13.21727743190683
0 THOR AGENA B DEB
1 01948U 65098F   13289.68978846  .00008555  00000-0  19291-2 0  5318
2 01948 079.8586 259.3184 0916007 287.4751 113.2895 13.21765674191042
0 THOR AGENA B DEB
1 01948U 65098F   13291.96519549  .00004861  00000-0  10971-2 0  5326
2 01948 079.8597 257.0758 0915760 282.0870 140.6417 13.21800620191342
0 THOR AGENA B DEB
1 01948U 65098F   13294.00996451  .00007004  00000-0  15811-2 0  5336
2 01948 079.8599 255.0607 0915583 277.2443 150.7329 13.21819420191612
